IRIDIUM 26              
1 24903U 97043A   25096.81733569  .00000781  00000+0  25667-3 0  9999
2 24903  86.3961 140.6068 0002194  88.9049 271.2399 14.37069057446966
IRIDIUM 22              
1 24907U 97043E   25096.82779911  .00000690  00000+0  23129-3 0  9995
2 24907  86.3973 144.0772 0002258  93.9514 266.1941 14.35893249446521
DUMMY MASS 1            
1 24925U 97048A   25096.20846548  .00000971  00000+0  10553-3 0  9992
2 24925  86.3402 168.5955 0008435  54.4676 305.7334 14.86910900494671
DUMMY MASS 2            
1 24926U 97048B   25096.22595467  .00000964  00000+0  10532-3 0  9995
2 24926  86.3403 170.1794 0009473  62.4593 297.7593 14.86663820494452
IRIDIUM 29              
1 24944U 97051A   25096.45781942  .00000921  00000+0  30813-3 0  9996
2 24944  86.4023 173.9632 0002342  99.3398 260.8064 14.36391372443197
IRIDIUM 33              
1 24946U 97051C   25095.73378496  .00000552  00000+0  18771-3 0  9993
2 24946  86.3939 173.5211 0006307 328.1900  31.8914 14.34839602442358
IRIDIUM 28              
1 24948U 97051E   25096.75611956  .00000770  00000+0  25176-3 0  9998
2 24948  86.4025 171.3979 0001932  85.6004 274.5414 14.37320373443651
IRIDIUM 36              
1 24967U 97056C   25096.79997177  .00000997  00000+0  32631-3 0  9995
2 24967  86.4031 202.9496 0001901  98.2598 261.8815 14.37532147441968
